[
    {
        "Altitude(m)": 553534.537995437,
        "Argument of Periapsis(deg)": 0.033114955553567506,
        "Eccentricity": 0.0,
        "Inclination(deg)": 53.0,
        "Latitude(deg)": 8.33422625858154,
        "Longitude(deg)": 22.31526108213768,
        "Mean Anomaly(deg)": 10.458064337888073,
        "RAAN(deg)": 119.95071684264008,
        "Satellite Name": "Starlink Shell 1 547",
        "Satellite Number": 547,
        "Semi-Major Axis(m)": 6931778.249405717,
        "Time(s)": 950
    },
    {
        "Altitude(m)": 553516.9688807235,
        "Argument of Periapsis(deg)": 0.03346353403307874,
        "Eccentricity": 0.0,
        "Inclination(deg)": 53.0,
        "Latitude(deg)": 8.83495097367359,
        "Longitude(deg)": 22.65925219914452,
        "Mean Anomaly(deg)": 11.084895541444745,
        "RAAN(deg)": 119.95019807256261,
        "Satellite Name": "Starlink Shell 1 547",
        "Satellite Number": 547,
        "Semi-Major Axis(m)": 6931778.249405717,
        "Time(s)": 960
    },
    {
        "Altitude(m)": 553502.1304360987,
        "Argument of Periapsis(deg)": 0.03381211251258998,
        "Eccentricity": 0.0,
        "Inclination(deg)": 53.0,
        "Latitude(deg)": 9.33527172599011,
        "Longitude(deg)": 23.004287879295358,
        "Mean Anomaly(deg)": 11.711726745001414,
        "RAAN(deg)": 119.94967930248512,
        "Satellite Name": "Starlink Shell 1 547",
        "Satellite Number": 547,
        "Semi-Major Axis(m)": 6931778.249405717,
        "Time(s)": 970
    },
    {
        "Altitude(m)": 553490.0066275776,
        "Argument of Periapsis(deg)": 0.034160690992101214,
        "Eccentricity": 0.0,
        "Inclination(deg)": 53.0,
        "Latitude(deg)": 9.835163595463046,
        "Longitude(deg)": 23.350429904085114,
        "Mean Anomaly(deg)": 12.338557948558162,
        "RAAN(deg)": 119.94916053240766,
        "Satellite Name": "Starlink Shell 1 547",
        "Satellite Number": 547,
        "Semi-Major Axis(m)": 6931778.249405717,
        "Time(s)": 980
    },
    {
        "Altitude(m)": 553480.5801588112,
        "Argument of Periapsis(deg)": 0.034509269471612446,
        "Eccentricity": 0.0,
        "Inclination(deg)": 53.0,
        "Latitude(deg)": 10.334601428879292,
        "Longitude(deg)": 23.697741041600505,
        "Mean Anomaly(deg)": 12.965389152114804,
        "RAAN(deg)": 119.9486417623302,
        "Satellite Name": "Starlink Shell 1 547",
        "Satellite Number": 547,
        "Semi-Major Axis(m)": 6931778.249405717,
        "Time(s)": 990
    }
]